$$SOE
2461302.500000000, A.D. 2026-Sep-19 00:00:00.0000, -3.989102760819770E+08, -1.296127714141018E+08, 6.800932551199982E+07,
2461309.500000000, A.D. 2026-Sep-26 00:00:00.0000, -3.954424232154161E+08, -1.401744727435623E+08, 6.990273533338073E+07,
2461316.500000000, A.D. 2026-Oct-03 00:00:00.0000, -3.917250956955366E+08, -1.506477236611108E+08, 7.175204222924700E+07,
2461323.500000000, A.D. 2026-Oct-10 00:00:00.0000, -3.877614191324026E+08, -1.610262211461241E+08, 7.355622250414769E+07,
2461330.500000000, A.D. 2026-Oct-17 00:00:00.0000, -3.835547056137151E+08, -1.713037829798439E+08, 7.531429705857481E+07,
2461337.500000000, A.D. 2026-Oct-24 00:00:00.0000, -3.791084473655304E+08, -1.814743542376184E+08, 7.702533211140917E+07,
2461344.500000000, A.D. 2026-Oct-31 00:00:00.0000, -3.744263100696308E+08, -1.915320135699943E+08, 7.868843979507950E+07,
2461351.500000000, A.D. 2026-Nov-07 00:00:00.0000, -3.695121255252365E+08, -2.014709791877207E+08, 8.030277859896216E+07,
2461358.500000000, A.D. 2026-Nov-14 00:00:00.0000, -3.643698834810153E+08, -2.112856136542379E+08, 8.186755371610744E+07,
2461365.500000000, A.D. 2026-Nov-21 00:00:00.0000, -3.590037244755671E+08, -2.209704267968856E+08, 8.338201751644979E+07,
2461372.500000000, A.D. 2026-Nov-28 00:00:00.0000, -3.534179347113642E+08, -2.305200797410919E+08, 8.484546999410039E+07,
2461379.500000000, A.D. 2026-Dec-05 00:00:00.0000, -3.476169393711083E+08, -2.399293907224428E+08, 8.625725880610645E+07,
2461386.500000000, A.D. 2026-Dec-12 00:00:00.0000, -3.416052942394320E+08, -2.491933395643029E+08, 8.761677914508370E+07,
2461393.500000000, A.D. 2026-Dec-19 00:00:00.0000, -3.353876775425956E+08, -2.583070708141529E+08, 8.892347362217194E+07,
2461400.500000000, A.D. 2026-Dec-26 00:00:00.0000, -3.289688821727712E+08, -2.672658964091469E+08, 9.017683210526824E+07,
2461407.500000000, A.D. 2027-Jan-02 00:00:00.0000, -3.223538080455741E+08, -2.760652980672219E+08, 9.137639147509563E+07,
2461414.500000000, A.D. 2027-Jan-09 00:00:00.0000, -3.155474544988251E+08, -2.847009293907474E+08, 9.252173529414287E+07,
2461421.500000000, A.D. 2027-Jan-16 00:00:00.0000, -3.085549127217926E+08, -2.931686176820407E+08, 9.361249339032832E+07,
2461428.500000000, A.D. 2027-Jan-23 00:00:00.0000, -3.013813581925737E+08, -3.014643655195816E+08, 9.464834135234067E+07,
2461435.500000000, A.D. 2027-Jan-30 00:00:00.0000, -2.940320429585179E+08, -3.095843521530954E+08, 9.562899992000419E+07,
2461442.500000000, A.D. 2027-Feb-06 00:00:00.0000, -2.865122873565564E+08, -3.175249343887439E+08, 9.655423426303229E+07,
2461449.500000000, A.D. 2027-Feb-13 00:00:00.0000, -2.788274716539136E+08, -3.252826457562412E+08, 9.742385329440764E+07,
2461456.500000000, A.D. 2027-Feb-20 00:00:00.0000, -2.709830299909422E+08, -3.328541947605160E+08, 9.823770917437178E+07,
2461463.500000000, A.D. 2027-Feb-27 00:00:00.0000, -2.629844452459984E+08, -3.402364654445699E+08, 9.899569661803974E+07,
2461470.500000000, A.D. 2027-Mar-06 00:00:00.0000, -2.548372418187730E+08, -3.474265183550943E+08, 9.969775189086626E+07,
2461477.500000000, A.D. 2027-Mar-13 00:00:00.0000, -2.465469779445847E+08, -3.544215898756334E+08, 1.003438518099307E+08,
2461484.500000000, A.D. 2027-Mar-20 00:00:00.0000, -2.381192386791722E+08, -3.612190907772489E+08, 1.009340127901367E+08,
2461491.500000000, A.D. 2027-Mar-27 00:00:00.0000, -2.295596293613049E+08, -3.678166045525526E+08, 1.014682898762370E+08,
2461498.500000000, A.D. 2027-Apr-03 00:00:00.0000, -2.208737693595568E+08, -3.742118855986110E+08, 1.019467757430776E+08,
2461505.500000000, A.D. 2027-Apr-10 00:00:00.0000, -2.120672860509681E+08, -3.804028572431498E+08, 1.023695996654390E+08,
2461512.500000000, A.D. 2027-Apr-17 00:00:00.0000, -2.031458090174991E+08, -3.863876096448737E+08, 1.027369264590817E+08,
2461519.500000000, A.D. 2027-Apr-24 00:00:00.0000, -1.941149643874259E+08, -3.921643976456621E+08, 1.030489553848735E+08,
2461526.500000000, A.D. 2027-May-01 00:00:00.0000, -1.849803690267238E+08, -3.977316385619446E+08, 1.033059189945263E+08,
2461533.500000000, A.D. 2027-May-08 00:00:00.0000, -1.757476242763474E+08, -4.030879091816480E+08, 1.035080819542992E+08,
2461540.500000000, A.D. 2027-May-15 00:00:00.0000, -1.664223107342604E+08, -4.082319410273735E+08, 1.036557400648268E+08,
2461547.500000000, A.D. 2027-May-22 00:00:00.0000, -1.570099856463964E+08, -4.131626164910996E+08, 1.037492194112256E+08,
2461554.500000000, A.D. 2027-May-29 00:00:00.0000, -1.475161795500271E+08, -4.178789673232771E+08, 1.037888752185023E+08,
2461561.500000000, A.D. 2027-Jun-05 00:00:00.0000, -1.379463912840930E+08, -4.223801723592559E+08, 1.037750905902035E+08,
2461568.500000000, A.D. 2027-Jun-12 00:00:00.0000, -1.283060833726935E+08, -4.266655540645952E+08, 1.037082753525014E+08,
2461575.500000000, A.D. 2027-Jun-19 00:00:00.0000, -1.186006781102644E+08, -4.307345748467034E+08, 1.035888649600690E+08,
2461582.500000000, A.D. 2027-Jun-26 00:00:00.0000, -1.088355540655897E+08, -4.345868334062737E+08, 1.034173194190658E+08,
2461589.500000000, A.D. 2027-Jul-03 00:00:00.0000, -9.901604286839183E+07, -4.382220611322809E+08, 1.031941222181368E+08,
2461596.500000000, A.D. 2027-Jul-10 00:00:00.0000, -8.914742623718427E+07, -4.416401185438651E+08, 1.029197792672727E+08,
2461603.500000000, A.D. 2027-Jul-17 00:00:00.0000, -7.923493320755744E+07, -4.448409918297026E+08, 1.025948178406343E+08,
2461610.500000000, A.D. 2027-Jul-24 00:00:00.0000, -6.928373740001646E+07, -4.478247895586655E+08, 1.022197855062996E+08,
2461617.500000000, A.D. 2027-Jul-31 00:00:00.0000, -5.929895391129189E+07, -4.505917393363009E+08, 1.017952490265234E+08,
2461624.500000000, A.D. 2027-Aug-07 00:00:00.0000, -4.928563602488563E+07, -4.531421832644047E+08, 1.013217933426486E+08,
2461631.500000000, A.D. 2027-Aug-14 00:00:00.0000, -3.924877403645213E+07, -4.554765724646640E+08, 1.008000208360030E+08,
2461638.500000000, A.D. 2027-Aug-21 00:00:00.0000, -2.919329556924063E+07, -4.575954640375120E+08, 1.002305505337207E+08,
2461645.500000000, A.D. 2027-Aug-28 00:00:00.0000, -1.912406394158493E+07, -4.594995192606815E+08, 9.961401704405235E+07,
2461652.500000000, A.D. 2027-Sep-04 00:00:00.0000, -9.045875761176683E+06, -4.611895005327364E+08, 9.895106953500679E+07,
2461659.500000000, A.D. 2027-Sep-11 00:00:00.0000, 1.036540864841797E+06, -4.626662677292708E+08, 9.824237083084542E+07,
2461666.500000000, A.D. 2027-Sep-18 00:00:00.0000, 1.111852764362498E+07, -4.639307746273705E+08, 9.748859656132634E+07,
2461673.500000000, A.D. 2027-Sep-25 00:00:00.0000, 2.119549716970322E+07, -4.649840654806805E+08, 9.669043433641006E+07,
2461680.500000000, A.D. 2027-Oct-02 00:00:00.0000, 3.126293383927550E+07, -4.658272717216522E+08, 9.584858294170740E+07,
2461687.500000000, A.D. 2027-Oct-09 00:00:00.0000, 4.131639463522405E+07, -4.664616087993278E+08, 9.496375155218157E+07,
2461694.500000000, A.D. 2027-Oct-16 00:00:00.0000, 5.135150985299408E+07, -4.668883732113421E+08, 9.403665895393430E+07,
2461701.500000000, A.D. 2027-Oct-23 00:00:00.0000, 6.136398403369836E+07, -4.671089397394662E+08, 9.306803274997443E+07,
2461708.500000000, A.D. 2027-Oct-30 00:00:00.0000, 7.134959748497012E+07, -4.671247582813996E+08, 9.205860856551692E+07,
2461715.500000000, A.D. 2027-Nov-06 00:00:00.0000, 8.130420723138769E+07, -4.669373491524692E+08, 9.100912945127425E+07,
2461722.500000000, A.D. 2027-Nov-13 00:00:00.0000, 9.122374541446771E+07, -4.665482989335029E+08, 8.992034549605155E+07,
2461729.500000000, A.D. 2027-Nov-20 00:00:00.0000, 1.011042180508114E+08, -4.659592590502769E+08, 8.879301320266430E+07,
2461736.500000000, A.D. 2027-Nov-27 00:00:00.0000, 1.109417057734860E+08, -4.651719441210150E+08, 8.762789472067016E+07,
2461743.500000000, A.D. 2027-Dec-04 00:00:00.0000, 1.207323645401354E+08, -4.641881291599572E+08, 8.642575719635032E+07,
2461750.500000000, A.D. 2027-Dec-11 00:00:00.0000, 1.304724257634982E+08, -4.630096466029917E+08, 8.518737221195364E+07,
2461757.500000000, A.D. 2027-Dec-18 00:00:00.0000, 1.401581961447144E+08, -4.616383834961982E+08, 8.391351526149809E+07,
2461764.500000000, A.D. 2027-Dec-25 00:00:00.0000, 1.497860573660948E+08, -4.600762788505270E+08, 8.260496524895658E+07,
2461771.500000000, A.D. 2028-Jan-01 00:00:00.0000, 1.593524656891354E+08, -4.583253211481737E+08, 8.126250400580801E+07,
$$EOE